NORAD_CAT_ID,OBJECT_NAME,OBJECT_TYPE,EPOCH,MEAN_MOTION,ECCENTRICITY,INCLINATION,RA_OF_ASC_NODE,ARG_OF_PERICENTER,MEAN_ANOMALY,BSTAR,MEAN_MOTION_DOT,MEAN_MOTION_DDOT,TLE_LINE0,TLE_LINE1,TLE_LINE2,SEMIMAJOR_AXIS,PERIOD,APOGEE,PERIGEE,DECAYED
55319.0,STARLINK-5196,PAYLOAD,2024-06-05 04:39:10,14.98332914,0.0003221,69.9989,184.3719,266.148,93.9311,0.00025595,2.962e-05,0.0,0 STARLINK-5196,1 55319U 23010BC  24157.19386635  .00002962  00000-0  25595-3 0  9997,2 55319  69.9989 184.3719 0003221 266.1480  93.9311 14.98332914 77210,6950.184,96.107,574.288,569.81,0.0
55319.0,STARLINK-5196,PAYLOAD,2024-06-05 11:03:42,14.98335046,0.0003221,69.999,183.6987,265.9303,94.1488,0.00027235,3.159e-05,0.0,0 STARLINK-5196,1 55319U 23010BC  24157.46090559  .00003159  00000-0  27235-3 0  9996,2 55319  69.9990 183.6987 0003221 265.9303  94.1488 14.98335046 78445,6950.177,96.107,574.281,569.804,0.0
55319.0,STARLINK-5196,PAYLOAD,2024-06-05 19:04:22,14.98333817,0.0003249,69.9988,182.8569,267.4228,92.6559,0.00018265,2.087e-05,0.0,0 STARLINK-5196,1 55319U 23010BC  24157.79470600  .00002087  00000-0  18265-3 0  9993,2 55319  69.9988 182.8569 0003249 267.4228  92.6559 14.98333817 78493,6950.181,96.107,574.304,569.788,0.0
55319.0,STARLINK-5196,PAYLOAD,2024-06-06 04:41:11,14.98327689,0.0003181,69.9988,181.8472,267.3543,92.7252,2.2643e-06,-6.6e-07,0.0,0 STARLINK-5196,1 55319U 23010BC  24158.19526920 -.00000066  00000-0  22643-5 0  9998,2 55319  69.9988 181.8472 0003181 267.3543  92.7252 14.98327689 77365,6950.2,96.107,574.276,569.854,0.0
55319.0,STARLINK-5196,PAYLOAD,2024-06-06 11:05:43,14.98328578,0.0003158,69.998,181.1739,267.0493,93.0305,3.2473e-05,2.94e-06,0.0,0 STARLINK-5196,1 55319U 23010BC  24158.46231100  .00000294  00000-0  32473-4 0  9994,2 55319  69.9980 181.1739 0003158 267.0493  93.0305 14.98328578 78598,6950.197,96.107,574.257,569.867,0.0
55319.0,STARLINK-5196,PAYLOAD,2024-06-07 09:31:36,14.98333858,0.0003231,69.9981,178.8172,267.2089,92.8701,5.15e-05,5.22e-06,0.0,0 STARLINK-5196,1 55319U 23010BC  24159.39694642  .00000522  00000-0  51500-4 0  9997,2 55319  69.9981 178.8172 0003231 267.2089  92.8701 14.98333858 77546,6950.181,96.107,574.292,569.8,0.0
55319.0,STARLINK-5196,PAYLOAD,2024-06-07 19:08:22,14.98352956,0.0003424,69.9981,177.8071,266.4154,93.6614,0.00028423,3.302e-05,0.0,0 STARLINK-5196,1 55319U 23010BC  24159.79748577  .00003302  00000-0  28423-3 0  9994,2 55319  69.9981 177.8071 0003424 266.4154  93.6614 14.98352956 77600,6950.122,96.106,574.367,569.607,0.0
55319.0,STARLINK-5196,PAYLOAD,2024-06-08 11:09:44,14.98332256,0.0003078,69.9983,176.1237,273.4386,86.6421,0.00010091,1.111e-05,0.0,0 STARLINK-5196,1 55319U 23010BC  24160.46509700  .00001111  00000-0  10091-3 0  9991,2 55319  69.9983 176.1237 0003078 273.4386  86.6421 14.98332256 78899,6950.186,96.107,574.19,569.912,0.0
55319.0,STARLINK-5196,PAYLOAD,2024-06-09 04:47:13,14.98326958,0.0003072,69.9988,174.2723,269.6417,90.439,-1.8812e-05,-3.17e-06,0.0,0 STARLINK-5196,1 55319U 23010BC  24161.19946328 -.00000317  00000-0 -18812-4 0  9992,2 55319  69.9988 174.2723 0003072 269.6417  90.4390 14.98326958 77810,6950.202,96.107,574.202,569.932,0.0
55319.0,STARLINK-5196,PAYLOAD,2024-06-09 11:11:45,14.98326775,0.0003045,69.9991,173.5992,269.241,90.84,-3.8074e-05,-5.47e-06,0.0,0 STARLINK-5196,1 55319U 23010BC  24161.46650330 -.00000547  00000-0 -38074-4 0  9994,2 55319  69.9991 173.5992 0003045 269.2410  90.8400 14.98326775 79043,6950.203,96.107,574.184,569.952,0.0
55319.0,STARLINK-5196,PAYLOAD,2024-06-09 17:36:18,14.98328265,0.0003056,69.9991,172.9257,270.1643,89.9166,-1.3902e-05,-2.59e-06,0.0,0 STARLINK-5196,1 55319U 23010BC  24161.73354205 -.00000259  00000-0 -13902-4 0  9999,2 55319  69.9991 172.9257 0003056 270.1643  89.9166 14.98328265 79089,6950.198,96.107,574.187,569.939,0.0
55319.0,STARLINK-5196,PAYLOAD,2024-06-10 04:49:14,14.98338189,0.0003038,69.9989,171.7477,270.1893,89.8918,-0.00021917,-2.708e-05,0.0,0 STARLINK-5196,1 55319U 23010BC  24162.20085685 -.00002708  00000-0 -21917-3 0  9990,2 55319  69.9989 171.7477 0003038 270.1893  89.8918 14.98338189 77969,6950.168,96.106,574.144,569.921,0.0
55319.0,STARLINK-5196,PAYLOAD,2024-06-10 09:37:38,14.98338427,0.0002995,69.9989,171.2421,267.7426,92.339,-0.00020339,-2.519e-05,0.0,0 STARLINK-5196,1 55319U 23010BC  24162.40113540 -.00002519  00000-0 -20339-3 0  9991,2 55319  69.9989 171.2421 0002995 267.7426  92.3390 14.98338427 79182,6950.167,96.106,574.113,569.95,0.0
55319.0,STARLINK-5196,PAYLOAD,2024-06-10 17:38:18,14.9833847,0.0002989,69.999,170.401,269.6232,90.4585,-0.00015926,-1.993e-05,0.0,0 STARLINK-5196,1 55319U 23010BC  24162.73493401 -.00001993  00000-0 -15926-3 0  9995,2 55319  69.9990 170.4010 0002989 269.6232  90.4585 14.98338470 79237,6950.167,96.106,574.109,569.954,0.0
55319.0,STARLINK-5196,PAYLOAD,2024-06-11 04:51:15,14.98324339,0.0003018,69.9988,169.2227,270.7524,89.3289,0.00022186,2.555e-05,0.0,0 STARLINK-5196,1 55319U 23010BC  24163.20226169  .00002555  00000-0  22186-3 0  9992,2 55319  69.9988 169.2227 0003018 270.7524  89.3289 14.98324339 78114,6950.21,96.107,574.173,569.978,0.0
55319.0,STARLINK-5196,PAYLOAD,2024-06-11 09:39:39,14.98327563,0.0003032,69.9999,168.7178,270.7937,89.2875,0.00027193,3.153e-05,0.0,0 STARLINK-5196,1 55319U 23010BC  24163.40254232  .00003153  00000-0  27193-3 0  9994,2 55319  69.9999 168.7178 0003032 270.7937  89.2875 14.98327563 79336,6950.2,96.107,574.173,569.958,0.0
55319.0,STARLINK-5196,PAYLOAD,2024-06-12 06:29:24,14.983275,0.0003114,70.0,166.5296,269.7582,90.3221,5.7198e-05,5.89e-06,0.0,0 STARLINK-5196,1 55319U 23010BC  24164.27041866  .00000589  00000-0  57198-4 0  9996,2 55319  70.0000 166.5296 0003114 269.7582  90.3221 14.98327500 78275,6950.201,96.107,574.23,569.901,0.0
55319.0,STARLINK-5196,PAYLOAD,2024-06-12 17:42:20,14.98328889,0.0003151,70.0004,165.3512,269.7431,90.3367,-7.7342e-05,-1.016e-05,0.0,0 STARLINK-5196,1 55319U 23010BC  24164.73773648 -.00001016  00000-0 -77342-4 0  9998,2 55319  70.0004 165.3512 0003151 269.7431  90.3367 14.98328889 79533,6950.196,96.107,574.251,569.871,0.0
55319.0,STARLINK-5196,PAYLOAD,2024-06-13 09:43:40,14.98332164,0.0003228,70.0006,163.6683,270.4836,89.5953,0.00020532,2.358e-05,0.0,0 STARLINK-5196,1 55319U 23010BC  24165.40533564  .00002358  00000-0  20532-3 0  9990,2 55319  70.0006 163.6683 0003228 270.4836  89.5953 14.98332164 78449,6950.186,96.107,574.295,569.808,0.0
55319.0,STARLINK-5196,PAYLOAD,2024-06-14 09:45:42,14.98330614,0.0003095,70.0001,161.1435,270.617,89.4635,-3.7195e-05,-5.37e-06,0.0,0 STARLINK-5196,1 55319U 23010BC  24166.40673942 -.00000537  00000-0 -37195-4 0  9999,2 55319  70.0001 161.1435 0003095 270.6170  89.4635 14.98330614 79789,6950.191,96.107,574.207,569.905,0.0
55319.0,STARLINK-5196,PAYLOAD,2024-06-14 22:34:47,14.98328821,0.0003136,70.0,159.797,269.8626,90.2173,0.0002339,2.699e-05,0.0,0 STARLINK-5196,1 55319U 23010BC  24166.94082340  .00002699  00000-0  23390-3 0  9994,2 55319  70.0000 159.7970 0003136 269.8626  90.2173 14.98328821 79860,6950.197,96.107,574.241,569.882,0.0
55319.0,STARLINK-5196,PAYLOAD,2024-06-15 09:47:43,14.98331586,0.0003115,70.0001,158.6188,269.5629,90.5174,0.00024812,2.869e-05,0.0,0 STARLINK-5196,1 55319U 23010BC  24167.40814318  .00002869  00000-0  24812-3 0  9993,2 55319  70.0001 158.6188 0003115 269.5629  90.5174 14.98331586 79931,6950.188,96.107,574.218,569.888,0.0
55319.0,STARLINK-5196,PAYLOAD,2024-06-15 16:12:15,14.9833418,0.0003119,70.0001,157.9455,269.6064,90.4737,0.00026667,3.091e-05,0.0,0 STARLINK-5196,1 55319U 23010BC  24167.67518226  .00003091  00000-0  26667-3 0  9999,2 55319  70.0001 157.9455 0003119 269.6064  90.4737 14.98334180 79979,6950.18,96.107,574.213,569.877,0.0
55319.0,STARLINK-5196,PAYLOAD,2024-06-16 09:49:44,14.9834228,0.0003139,70.0001,156.0938,269.7121,90.3678,0.00038209,4.47e-05,0.0,0 STARLINK-5196,1 55319U 23010BC  24168.40953760  .00004470  00000-0  38209-3 0  9994,2 55319  70.0001 156.0938 0003139 269.7121  90.3678 14.98342280 80089,6950.155,96.106,574.202,569.838,0.0
55319.0,STARLINK-5196,PAYLOAD,2024-06-16 16:14:16,14.98337295,0.0003126,70.0,155.4204,269.9524,90.1276,0.00020382,2.34e-05,0.0,0 STARLINK-5196,1 55319U 23010BC  24168.67657855  .00002340  00000-0  20382-3 0  9996,2 55319  70.0000 155.4204 0003126 269.9524  90.1276 14.98337295 80129,6950.17,96.107,574.208,569.863,0.0
55319.0,STARLINK-5196,PAYLOAD,2024-06-17 22:40:49,14.98335188,0.0002973,69.9991,152.2228,266.7897,93.2922,4.5203e-05,4.46e-06,0.0,0 STARLINK-5196,1 55319U 23010BC  24169.94502004  .00000446  00000-0  45203-4 0  9997,2 55319  69.9991 152.2228 0002973 266.7897  93.2922 14.98335188 80315,6950.177,96.107,574.108,569.976,0.0
55319.0,STARLINK-5196,PAYLOAD,2024-06-18 05:05:21,14.98335064,0.0002983,69.9991,151.5495,266.7893,93.2925,3.981e-05,3.82e-06,0.0,0 STARLINK-5196,1 55319U 23010BC  24170.21205902  .00000382  00000-0  39810-4 0  9992,2 55319  69.9991 151.5495 0002983 266.7893  93.2925 14.98335064 79167,6950.177,96.107,574.115,569.969,0.0
55319.0,STARLINK-5196,PAYLOAD,2024-06-18 08:17:38,14.98334801,0.0002986,69.9991,151.2129,266.8437,93.238,2.9492e-05,2.59e-06,0.0,0 STARLINK-5196,1 55319U 23010BC  24170.34557879  .00000259  00000-0  29492-4 0  9997,2 55319  69.9991 151.2129 0002986 266.8437  93.2380 14.98334801 80374,6950.178,96.107,574.118,569.968,0.0
55319.0,STARLINK-5196,PAYLOAD,2024-06-18 16:18:17,14.98346864,0.0003071,69.9991,150.371,266.7262,93.3545,0.00019114,2.189e-05,0.0,0 STARLINK-5196,1 55319U 23010BC  24170.67936554  .00002189  00000-0  19114-3 0  9997,2 55319  69.9991 150.3710 0003071 266.7262  93.3545 14.98346864 79230,6950.141,96.106,574.14,569.871,0.0
55319.0,STARLINK-5196,PAYLOAD,2024-06-19 08:19:36,14.98360337,0.0003177,69.9998,148.6874,266.8702,93.2094,0.00055279,6.514e-05,0.0,0 STARLINK-5196,1 55319U 23010BC  24171.34695556  .00006514  00000-0  55279-3 0  9994,2 55319  69.9998 148.6874 0003177 266.8702  93.2094 14.98360337 80528,6950.099,96.105,574.172,569.756,0.0
